OBJECT_NAME,OBJECT_ID,EPOCH,MEAN_MOTION,ECCENTRICITY,INCLINATION,RA_OF_ASC_NODE,ARG_OF_PERICENTER,MEAN_ANOMALY,EPHEMERIS_TYPE,CLASSIFICATION_TYPE,NORAD_CAT_ID,ELEMENT_SET_NO,REV_AT_EPOCH,BSTAR,MEAN_MOTION_DOT,MEAN_MOTION_DDOT
JUPITER 3 (ECHOSTAR 24),2023-108A,2026-07-14T10:51:29.480256,1.00272339,.00011081,0.0108,40.5711,70.6612,248.7625,0,U,57479,999,1091,0,-.157E-5,0
GALAXY 37 (G-37),2023-112A,2026-07-13T23:07:32.881728,1.00271325,.00017395,0.0218,73.5270,44.1230,34.0616,0,U,57493,999,1081,0,.42E-6,0
LUDI TANCE-4 01A,2023-120A,2026-07-14T23:24:51.721632,1.00275760,.00014889,15.0865,193.2798,16.8155,163.4500,0,U,57624,999,1082,0,-.185E-5,0
TJS-10,2023-169A,2026-07-15T18:56:28.818816,1.00273627,.000408,2.6161,80.1472,115.1904,114.7974,0,U,58204,999,982,0,-.261E-5,0
ZHONGXING-6E,2023-172A,2026-07-14T16:55:11.377920,1.00272476,.0002698,0.0192,86.2131,23.7417,191.9164,0,U,58253,999,993,0,-.37E-5,0
YAOGAN-41,2023-197A,2026-07-15T15:39:59.692608,1.00265429,.00142856,3.0778,313.5933,198.5209,139.4751,0,U,58582,999,960,0,-.369E-5,0
OVZON-3,2024-003A,2026-07-14T20:54:52.408224,1.00270475,.00003681,0.0136,108.2863,217.1758,340.6622,0,U,58698,999,772,0,.43E-6,0
INSAT-3DS,2024-033A,2026-07-15T13:45:37.878912,1.00270876,.00010742,0.0901,264.6548,224.7763,92.4622,0,U,58990,999,4735,0,-.166E-5,0
MERAH PUTIH 2,2024-035A,2026-07-14T08:16:38.659296,1.00270544,.00010623,0.0215,82.0854,34.4456,52.7926,0,U,58995,999,886,0,-.365E-5,0
TJS-11,2024-037A,2026-07-15T12:38:19.756320,1.00273521,.000183,4.1626,327.4370,149.7553,118.3249,0,U,59020,999,886,0,-.369E-5,0
HULIANWAN GAOGUI-01 (HG-01),2024-040A,2026-07-15T13:31:44.265792,1.00274292,.00017249,0.0734,333.3745,62.7563,133.8265,0,U,59069,999,761,0,.146E-5,0
EUTELSAT 36D,2024-059A,2026-07-15T11:49:45.855840,1.00270745,.00002006,0.0176,47.0031,205.4788,254.1647,0,U,59346,999,843,0,.146E-5,0
PAKSAT-MM1,2024-104A,2026-07-13T13:38:44.797056,1.00269751,.0001963,0.0311,143.3666,313.2921,77.6097,0,U,59915,999,779,0,.15E-5,0
ASTRA 1P (SES-24),2024-115A,2026-07-13T08:25:18.669792,1.00281209,.00014971,0.0666,329.5187,236.9138,230.3347,0,U,60086,999,746,0,.118E-5,0
GOES 19,2024-119A,2026-07-15T13:00:41.294304,1.00271363,.0000432,0.0103,100.1257,110.8305,202.4055,0,U,60133,999,724,0,-.258E-5,0
ZHONGXING-3A,2024-122A,2026-07-15T17:16:28.487424,1.00270021,.0001716,0.0283,118.3269,48.6608,127.2796,0,U,60179,999,759,0,-.324E-5,0
TURKSAT 6A,2024-127A,2026-07-15T11:51:30.689280,1.00269762,.0002917,0.0175,204.7927,324.0407,344.3612,0,U,60233,999,730,0,0,0
HULIANWAN GAOGUI-02 (HG-02),2024-135A,2026-07-15T15:48:11.081376,1.00273512,.0006066,0.0465,358.0661,11.4400,314.0658,0,U,60327,999,778,0,-.184E-5,0
ZHONGXING-4A,2024-151A,2026-07-15T12:43:07.967712,1.00267142,.0000406,1.2426,270.4906,296.2264,35.6107,0,U,60606,999,703,0,-.372E-5,0
HULIANWAN GAOGUI-03 (HG-03),2024-181A,2026-07-15T14:42:50.174208,1.00270797,.00010743,0.0509,358.9002,94.6122,343.5302,0,U,61503,999,711,0,-.251E-5,0
DSN-3 (KIRAMEKI-3),2024-198A,2026-07-15T14:03:16.467264,1.00269442,.00008823,0.0259,61.4094,76.7241,150.1971,0,U,61733,999,620,0,0,0
KOREASAT 6A,2024-206A,2026-07-15T13:55:14.457216,1.00269917,.00007323,0.0145,98.0215,355.7286,164.4892,0,U,61910,999,612,0,-.372E-5,0
OPTUS-X (ADS-01),2024-212A,2026-07-15T04:50:38.802336,1.00270006,.00023861,0.0135,63.8448,90.1044,8.1442,0,U,62006,999,604,0,-.153E-5,0
GSAT-N2 (GSAT-20),2024-214A,2026-07-15T14:53:38.639904,1.00271152,.00026376,0.0732,262.1958,143.9633,178.6435,0,U,62028,999,618,0,-.29E-6,0
SXM-9,2024-234A,2026-07-15T12:06:26.657280,1.00269454,.00049346,0.0170,340.3893,337.5225,71.8756,0,U,62259,999,585,0,-.215E-5,0
TJS-12,2024-246A,2026-07-15T14:04:01.395264,1.00268878,.00017947,0.6107,302.1390,97.4096,251.4069,0,U,62374,999,584,0,-.241E-5,0
NUVIEW ALPHA,2024-252B,2026-07-15T06:07:51.084768,1.00270943,.0000983,0.0436,27.4031,54.2618,220.2947,0,U,62455,999,410,0,-.225E-5,0
AGILA,2024-252C,2026-07-15T14:34:38.602272,1.00270462,.00011809,0.0493,128.1618,351.5480,184.5583,0,U,62456,999,544,0,-.192E-5,0
NUVIEW BRAVO,2024-252D,2026-07-15T06:07:51.084768,1.00270612,.00015028,0.0698,162.7343,343.8112,155.4099,0,U,62457,999,407,0,-.224E-5,0
THURAYA-4,2025-001A,2026-07-15T15:17:24.360000,1.00272605,.00001823,0.0209,71.9670,220.0286,275.1410,0,U,62483,999,446,0,.129E-5,0
SHIJIAN-25 (SJ-25),2025-002A,2026-07-15T19:02:20.514336,1.00263213,.0052117,5.1794,60.9819,175.4963,109.8555,0,U,62485,999,564,0,-.364E-5,0
